[{"OBJECT_NAME":"HST","OBJECT_ID":"1990-037B","EPOCH":"2026-03-09T03:50:04.164288","MEAN_MOTION":15.29473555,"ECCENTRICITY":0.00018372,"INCLINATION":28.4717,"RA_OF_ASC_NODE":43.6133,"ARG_OF_PERICENTER":120.9992,"MEAN_ANOMALY":239.0785,"EPHEMERIS_TYPE":0,"CLASSIFICATION_TYPE":"U","NORAD_CAT_ID":20580,"ELEMENT_SET_NO":999,"REV_AT_EPOCH":77323,"BSTAR":0.0003002261,"MEAN_MOTION_DOT":9.063e-5,"MEAN_MOTION_DDOT":0},{"OBJECT_NAME":"STARLINK-32425","OBJECT_ID":"2024-171S","EPOCH":"2026-03-09T22:17:06.652608","MEAN_MOTION":15.30157583,"ECCENTRICITY":8.762e-5,"INCLINATION":53.1597,"RA_OF_ASC_NODE":321.4355,"ARG_OF_PERICENTER":100.0428,"MEAN_ANOMALY":260.0672,"EPHEMERIS_TYPE":0,"CLASSIFICATION_TYPE":"U","NORAD_CAT_ID":61216,"ELEMENT_SET_NO":999,"REV_AT_EPOCH":8240,"BSTAR":0.00021850476,"MEAN_MOTION_DOT":6.11e-5,"MEAN_MOTION_DDOT":0}]
